KUIPER-00016            
1 63732U 25088J   25202.58334491 -.00918828  00000+0 -53799-1 0  9993
2 63732  51.8840  57.9172 0009836  40.7112  66.4573 15.14051241 13044
KUIPER-00018            
1 63733U 25088K   25202.29295516 -.00192230  00000+0 -53833-2 0  9997
2 63733  51.8676  55.6093 0006649  45.8190 314.3342 15.36790554 13051
KUIPER-00019            
1 63734U 25088L   25201.89536673  .00012922  00000+0  36095-3 0  9994
2 63734  51.8699  57.4533 0004043  60.8920 299.2471 15.37045034 12993
KUIPER-00020            
1 63735U 25088M   25202.58334491 -.00752793  00000+0 -26885-1 0  9999
2 63735  51.8723  54.7462 0007665  46.0040 214.1908 15.30611125 13293
KUIPER-00021            
1 63736U 25088N   25202.58334491  .00001998  00000+0  85722-4 0  9990
2 63736  51.8704  55.0740 0005242  59.4215  49.2398 15.27650476 13127
KUIPER-00023            
1 63737U 25088P   25202.58334491  .00036583  00000+0  14602-2 0  9996
2 63737  51.8722  55.5949 0008453  54.3688 169.1216 15.24787404 13411
KUIPER-00024            
1 63738U 25088Q   25201.89815159  .00006207  00000+0  17246-3 0  9993
2 63738  51.8721  56.7551 0003035  89.2560 270.8774 15.38223997 13472
KUIPER-00025            
1 63739U 25088R   25202.58334491 -.00242585  00000+0 -74654-2 0  9994
2 63739  51.8685  54.3017 0005462  54.6885  59.5306 15.34079201 13426
