<?xml version="1.0" encoding="UTF-8"?>
<ndm xmlns:xsi="http://www.w3.org/2001/XMLSchema-instance" xsi:noNamespaceSchemaLocation="https://sanaregistry.org/r/ndmxml_unqualified/ndmxml-2.0.0-master-2.0.xsd">
<omm id="CCSDS_OMM_VERS" version="2.0">
<header><CREATION_DATE/><ORIGINATOR/></header><body><segment><metadata><OBJECT_NAME>KUIPER-00016</OBJECT_NAME><OBJECT_ID>2025-088J</OBJECT_ID><CENTER_NAME>EARTH</CENTER_NAME><REF_FRAME>TEME</REF_FRAME><TIME_SYSTEM>UTC</TIME_SYSTEM><MEAN_ELEMENT_THEORY>SGP4</MEAN_ELEMENT_THEORY></metadata><data><meanElements><EPOCH>2025-07-21T14:00:01.000224</EPOCH><MEAN_MOTION>15.14051241</MEAN_MOTION><ECCENTRICITY>.0009836</ECCENTRICITY><INCLINATION>51.8840</INCLINATION><RA_OF_ASC_NODE>57.9172</RA_OF_ASC_NODE><ARG_OF_PERICENTER>40.7112</ARG_OF_PERICENTER><MEAN_ANOMALY>66.4573</MEAN_ANOMALY></meanElements><tleParameters><EPHEMERIS_TYPE>0</EPHEMERIS_TYPE><CLASSIFICATION_TYPE>U</CLASSIFICATION_TYPE><NORAD_CAT_ID>63732</NORAD_CAT_ID><ELEMENT_SET_NO>999</ELEMENT_SET_NO><REV_AT_EPOCH>1304</REV_AT_EPOCH><BSTAR>-.53799E-1</BSTAR><MEAN_MOTION_DOT>-.918828E-2</MEAN_MOTION_DOT><MEAN_MOTION_DDOT>0</MEAN_MOTION_DDOT></tleParameters></data></segment></body></omm>
<omm id="CCSDS_OMM_VERS" version="2.0">
<header><CREATION_DATE/><ORIGINATOR/></header><body><segment><metadata><OBJECT_NAME>KUIPER-00018</OBJECT_NAME><OBJECT_ID>2025-088K</OBJECT_ID><CENTER_NAME>EARTH</CENTER_NAME><REF_FRAME>TEME</REF_FRAME><TIME_SYSTEM>UTC</TIME_SYSTEM><MEAN_ELEMENT_THEORY>SGP4</MEAN_ELEMENT_THEORY></metadata><data><meanElements><EPOCH>2025-07-21T07:01:51.325824</EPOCH><MEAN_MOTION>15.36790554</MEAN_MOTION><ECCENTRICITY>.0006649</ECCENTRICITY><INCLINATION>51.8676</INCLINATION><RA_OF_ASC_NODE>55.6093</RA_OF_ASC_NODE><ARG_OF_PERICENTER>45.8190</ARG_OF_PERICENTER><MEAN_ANOMALY>314.3342</MEAN_ANOMALY></meanElements><tleParameters><EPHEMERIS_TYPE>0</EPHEMERIS_TYPE><CLASSIFICATION_TYPE>U</CLASSIFICATION_TYPE><NORAD_CAT_ID>63733</NORAD_CAT_ID><ELEMENT_SET_NO>999</ELEMENT_SET_NO><REV_AT_EPOCH>1305</REV_AT_EPOCH><BSTAR>-.53833E-2</BSTAR><MEAN_MOTION_DOT>-.19223E-2</MEAN_MOTION_DOT><MEAN_MOTION_DDOT>0</MEAN_MOTION_DDOT></tleParameters></data></segment></body></omm>
<omm id="CCSDS_OMM_VERS" version="2.0">
<header><CREATION_DATE/><ORIGINATOR/></header><body><segment><metadata><OBJECT_NAME>KUIPER-00019</OBJECT_NAME><OBJECT_ID>2025-088L</OBJECT_ID><CENTER_NAME>EARTH</CENTER_NAME><REF_FRAME>TEME</REF_FRAME><TIME_SYSTEM>UTC</TIME_SYSTEM><MEAN_ELEMENT_THEORY>SGP4</MEAN_ELEMENT_THEORY></metadata><data><meanElements><EPOCH>2025-07-20T21:29:19.685472</EPOCH><MEAN_MOTION>15.37045034</MEAN_MOTION><ECCENTRICITY>.0004043</ECCENTRICITY><INCLINATION>51.8699</INCLINATION><RA_OF_ASC_NODE>57.4533</RA_OF_ASC_NODE><ARG_OF_PERICENTER>60.8920</ARG_OF_PERICENTER><MEAN_ANOMALY>299.2471</MEAN_ANOMALY></meanElements><tleParameters><EPHEMERIS_TYPE>0</EPHEMERIS_TYPE><CLASSIFICATION_TYPE>U</CLASSIFICATION_TYPE><NORAD_CAT_ID>63734</NORAD_CAT_ID><ELEMENT_SET_NO>999</ELEMENT_SET_NO><REV_AT_EPOCH>1299</REV_AT_EPOCH><BSTAR>.36095E-3</BSTAR><MEAN_MOTION_DOT>.12922E-3</MEAN_MOTION_DOT><MEAN_MOTION_DDOT>0</MEAN_MOTION_DDOT></tleParameters></data></segment></body></omm>
<omm id="CCSDS_OMM_VERS" version="2.0">
<header><CREATION_DATE/><ORIGINATOR/></header><body><segment><metadata><OBJECT_NAME>KUIPER-00020</OBJECT_NAME><OBJECT_ID>2025-088M</OBJECT_ID><CENTER_NAME>EARTH</CENTER_NAME><REF_FRAME>TEME</REF_FRAME><TIME_SYSTEM>UTC</TIME_SYSTEM><MEAN_ELEMENT_THEORY>SGP4</MEAN_ELEMENT_THEORY></metadata><data><meanElements><EPOCH>2025-07-21T14:00:01.000224</EPOCH><MEAN_MOTION>15.30611125</MEAN_MOTION><ECCENTRICITY>.0007665</ECCENTRICITY><INCLINATION>51.8723</INCLINATION><RA_OF_ASC_NODE>54.7462</RA_OF_ASC_NODE><ARG_OF_PERICENTER>46.0040</ARG_OF_PERICENTER><MEAN_ANOMALY>214.1908</MEAN_ANOMALY></meanElements><tleParameters><EPHEMERIS_TYPE>0</EPHEMERIS_TYPE><CLASSIFICATION_TYPE>U</CLASSIFICATION_TYPE><NORAD_CAT_ID>63735</NORAD_CAT_ID><ELEMENT_SET_NO>999</ELEMENT_SET_NO><REV_AT_EPOCH>1329</REV_AT_EPOCH><BSTAR>-.26885E-1</BSTAR><MEAN_MOTION_DOT>-.752793E-2</MEAN_MOTION_DOT><MEAN_MOTION_DDOT>0</MEAN_MOTION_DDOT></tleParameters></data></segment></body></omm>
<omm id="CCSDS_OMM_VERS" version="2.0">
<header><CREATION_DATE/><ORIGINATOR/></header><body><segment><metadata><OBJECT_NAME>KUIPER-00021</OBJECT_NAME><OBJECT_ID>2025-088N</OBJECT_ID><CENTER_NAME>EARTH</CENTER_NAME><REF_FRAME>TEME</REF_FRAME><TIME_SYSTEM>UTC</TIME_SYSTEM><MEAN_ELEMENT_THEORY>SGP4</MEAN_ELEMENT_THEORY></metadata><data><meanElements><EPOCH>2025-07-21T14:00:01.000224</EPOCH><MEAN_MOTION>15.27650476</MEAN_MOTION><ECCENTRICITY>.0005242</ECCENTRICITY><INCLINATION>51.8704</INCLINATION><RA_OF_ASC_NODE>55.0740</RA_OF_ASC_NODE><ARG_OF_PERICENTER>59.4215</ARG_OF_PERICENTER><MEAN_ANOMALY>49.2398</MEAN_ANOMALY></meanElements><tleParameters><EPHEMERIS_TYPE>0</EPHEMERIS_TYPE><CLASSIFICATION_TYPE>U</CLASSIFICATION_TYPE><NORAD_CAT_ID>63736</NORAD_CAT_ID><ELEMENT_SET_NO>999</ELEMENT_SET_NO><REV_AT_EPOCH>1312</REV_AT_EPOCH><BSTAR>.85722E-4</BSTAR><MEAN_MOTION_DOT>.1998E-4</MEAN_MOTION_DOT><MEAN_MOTION_DDOT>0</MEAN_MOTION_DDOT></tleParameters></data></segment></body></omm>
<omm id="CCSDS_OMM_VERS" version="2.0">
<header><CREATION_DATE/><ORIGINATOR/></header><body><segment><metadata><OBJECT_NAME>KUIPER-00023</OBJECT_NAME><OBJECT_ID>2025-088P</OBJECT_ID><CENTER_NAME>EARTH</CENTER_NAME><REF_FRAME>TEME</REF_FRAME><TIME_SYSTEM>UTC</TIME_SYSTEM><MEAN_ELEMENT_THEORY>SGP4</MEAN_ELEMENT_THEORY></metadata><data><meanElements><EPOCH>2025-07-21T14:00:01.000224</EPOCH><MEAN_MOTION>15.24787404</MEAN_MOTION><ECCENTRICITY>.0008453</ECCENTRICITY><INCLINATION>51.8722</INCLINATION><RA_OF_ASC_NODE>55.5949</RA_OF_ASC_NODE><ARG_OF_PERICENTER>54.3688</ARG_OF_PERICENTER><MEAN_ANOMALY>169.1216</MEAN_ANOMALY></meanElements><tleParameters><EPHEMERIS_TYPE>0</EPHEMERIS_TYPE><CLASSIFICATION_TYPE>U</CLASSIFICATION_TYPE><NORAD_CAT_ID>63737</NORAD_CAT_ID><ELEMENT_SET_NO>999</ELEMENT_SET_NO><REV_AT_EPOCH>1341</REV_AT_EPOCH><BSTAR>.14602E-2</BSTAR><MEAN_MOTION_DOT>.36583E-3</MEAN_MOTION_DOT><MEAN_MOTION_DDOT>0</MEAN_MOTION_DDOT></tleParameters></data></segment></body></omm>
<omm id="CCSDS_OMM_VERS" version="2.0">
<header><CREATION_DATE/><ORIGINATOR/></header><body><segment><metadata><OBJECT_NAME>KUIPER-00024</OBJECT_NAME><OBJECT_ID>2025-088Q</OBJECT_ID><CENTER_NAME>EARTH</CENTER_NAME><REF_FRAME>TEME</REF_FRAME><TIME_SYSTEM>UTC</TIME_SYSTEM><MEAN_ELEMENT_THEORY>SGP4</MEAN_ELEMENT_THEORY></metadata><data><meanElements><EPOCH>2025-07-20T21:33:20.297376</EPOCH><MEAN_MOTION>15.38223997</MEAN_MOTION><ECCENTRICITY>.0003035</ECCENTRICITY><INCLINATION>51.8721</INCLINATION><RA_OF_ASC_NODE>56.7551</RA_OF_ASC_NODE><ARG_OF_PERICENTER>89.2560</ARG_OF_PERICENTER><MEAN_ANOMALY>270.8774</MEAN_ANOMALY></meanElements><tleParameters><EPHEMERIS_TYPE>0</EPHEMERIS_TYPE><CLASSIFICATION_TYPE>U</CLASSIFICATION_TYPE><NORAD_CAT_ID>63738</NORAD_CAT_ID><ELEMENT_SET_NO>999</ELEMENT_SET_NO><REV_AT_EPOCH>1347</REV_AT_EPOCH><BSTAR>.17246E-3</BSTAR><MEAN_MOTION_DOT>.6207E-4</MEAN_MOTION_DOT><MEAN_MOTION_DDOT>0</MEAN_MOTION_DDOT></tleParameters></data></segment></body></omm>
<omm id="CCSDS_OMM_VERS" version="2.0">
<header><CREATION_DATE/><ORIGINATOR/></header><body><segment><metadata><OBJECT_NAME>KUIPER-00025</OBJECT_NAME><OBJECT_ID>2025-088R</OBJECT_ID><CENTER_NAME>EARTH</CENTER_NAME><REF_FRAME>TEME</REF_FRAME><TIME_SYSTEM>UTC</TIME_SYSTEM><MEAN_ELEMENT_THEORY>SGP4</MEAN_ELEMENT_THEORY></metadata><data><meanElements><EPOCH>2025-07-21T14:00:01.000224</EPOCH><MEAN_MOTION>15.34079201</MEAN_MOTION><ECCENTRICITY>.0005462</ECCENTRICITY><INCLINATION>51.8685</INCLINATION><RA_OF_ASC_NODE>54.3017</RA_OF_ASC_NODE><ARG_OF_PERICENTER>54.6885</ARG_OF_PERICENTER><MEAN_ANOMALY>59.5306</MEAN_ANOMALY></meanElements><tleParameters><EPHEMERIS_TYPE>0</EPHEMERIS_TYPE><CLASSIFICATION_TYPE>U</CLASSIFICATION_TYPE><NORAD_CAT_ID>63739</NORAD_CAT_ID><ELEMENT_SET_NO>999</ELEMENT_SET_NO><REV_AT_EPOCH>1342</REV_AT_EPOCH><BSTAR>-.74654E-2</BSTAR><MEAN_MOTION_DOT>-.242585E-2</MEAN_MOTION_DOT><MEAN_MOTION_DDOT>0</MEAN_MOTION_DDOT></tleParameters></data></segment></body></omm>

</ndm>
